STARLINK-1470           
1 45772U 20038AU  26068.60892913  .00054678  00000+0  19687-2 0  9990
2 45772  53.0480 174.6971 0002444  12.8687 347.2373 15.28074860317065
STARLINK-34336          
1 64462U 25130AA  26068.34635599  .00017049  00000+0  58711-3 0  9994
2 64462  53.1586  92.6753 0001159  80.7300 279.3832 15.30161213 40616
