[{"OBJECT_NAME":"STARLINK-1470","OBJECT_ID":"2020-038AU","EPOCH":"2026-03-09T14:36:51.476832","MEAN_MOTION":15.2807486,"ECCENTRICITY":0.0002444,"INCLINATION":53.048,"RA_OF_ASC_NODE":174.6971,"ARG_OF_PERICENTER":12.8687,"MEAN_ANOMALY":347.2373,"EPHEMERIS_TYPE":0,"CLASSIFICATION_TYPE":"U","NORAD_CAT_ID":45772,"ELEMENT_SET_NO":999,"REV_AT_EPOCH":31706,"BSTAR":0.0019687,"MEAN_MOTION_DOT":0.00054678,"MEAN_MOTION_DDOT":0},{"OBJECT_NAME":"STARLINK-34336","OBJECT_ID":"2025-130AA","EPOCH":"2026-03-09T08:18:45.157536","MEAN_MOTION":15.30161213,"ECCENTRICITY":0.00011591,"INCLINATION":53.1586,"RA_OF_ASC_NODE":92.6753,"ARG_OF_PERICENTER":80.73,"MEAN_ANOMALY":279.3832,"EPHEMERIS_TYPE":0,"CLASSIFICATION_TYPE":"U","NORAD_CAT_ID":64462,"ELEMENT_SET_NO":999,"REV_AT_EPOCH":4061,"BSTAR":0.00058711216,"MEAN_MOTION_DOT":0.00017049,"MEAN_MOTION_DDOT":0}]
